ONEWEB-0018             
1 45434U 20020L   25060.17792445 -.00000485  00000+0 -14042-2 0  9997
2 45434  87.8847 115.3601 0002099  98.7335 261.4030 13.11416844240641
ONEWEB-0083             
1 45435U 20020M   25059.40478480 -.00000399  00000+0 -11630-2 0  9996
2 45435  87.8851 115.4972 0001896  98.4712 261.6631 13.11416273240576
ONEWEB-0095             
1 45436U 20020N   25059.54903409 -.00000215  00000+0 -64215-3 0  9991
2 45436  87.8850 115.4974 0001225  92.0140 268.1128 13.11414850240593
ONEWEB-0092             
1 45437U 20020P   25059.52093701  .00000540  00000+0  14874-2 0  9999
2 45437  87.8848 115.4899 0001684 101.0154 259.1163 13.11416118240703
ONEWEB-0085             
1 45438U 20020Q   25059.39800608 -.00000289  00000+0 -84995-3 0  9991
2 45438  87.8854 115.5241 0002009 100.4443 259.6911 13.11415486240577
ONEWEB-0096             
1 45439U 20020R   25060.16945750 -.00001193  00000+0 -34032-2 0  9998
2 45439  87.8850 115.3378 0002201 104.6850 255.4522 13.11409646240679
ONEWEB-0037             
1 45440U 20020S   25059.54042864  .00000210  00000+0  55637-3 0  9996
2 45440  87.8843 115.4317 0001831 100.7928 259.3406 13.11415339240612
ONEWEB-0042             
1 45441U 20020T   25060.15913139 -.00000009  00000+0 -60667-4 0  9996
2 45441  87.8849 115.3510 0002010 105.0125 255.1225 13.11415454240677
